{
  "norad_id": 53977,
  "name": "STARLINK-5094",
  "history": [
    {
      "epoch": "2026-03-28T20:27:42.563808",
      "apogee_km": 540.7797990423041,
      "perigee_km": 538.7607386268228,
      "latitude_deg": 23.499495927328173,
      "longitude_deg": 19.54729311983101,
      "semi_major_axis_km": 6917.907268834563,
      "eccentricity": 0.00014593,
      "inclination_deg": 53.2175,
      "raan_deg": 133.2072,
      "arg_perigee_deg": 90.9248,
      "mean_anomaly_deg": 269.1911,
      "mean_motion_rev_day": 15.08831206
    }
  ]
}