{"fetched_at":"2026-03-29T16:36:15Z","count":15609,"tles":[{"name":"STARLINK-5094","line1":"1 53977U 22125P   26087.85257597 -.00000960  00000+0 -42241-4 0  9997","line2":"2 53977  53.2175 133.2072 0001459  90.9248 269.1911 15.08831206192280","category":"Starlink"}]}